BEIDOU-2 IGSO-1 (C06)   
1 36828U 10036A   25132.53367819 -.00000034  00000+0  00000+0 0  9998
2 36828  54.2692 166.5826 0049316 217.1300 145.5043  1.00287974 54085
BEIDOU-2 G4 (C04)       
1 37210U 10057A   25134.83949062 -.00000096  00000+0  00000+0 0  9996
2 37210   2.6586  70.4567 0004406 199.8301  64.7433  1.00273038 53296
BEIDOU-2 IGSO-2 (C07)   
1 37256U 10068A   25133.32926921 -.00000203  00000+0  00000+0 0  9990
2 37256  48.2718 276.7748 0041602 210.9471 326.0977  1.00246955 52781
BEIDOU-2 IGSO-3 (C08)   
1 37384U 11013A   25134.82286206 -.00000194  00000+0  00000+0 0  9993
2 37384  61.8398  43.9278 0030128 179.2185  54.4646  1.00275090 51652
BEIDOU-2 IGSO-4 (C09)   
1 37763U 11038A   25134.07976677  .00000047  00000+0  00000+0 0  9992
2 37763  54.5723 169.2431 0142791 230.9511 314.7021  1.00284885 50644
BEIDOU-2 IGSO-5 (C10)   
1 37948U 11073A   25134.85600543 -.00000171  00000+0  00000+0 0  9997
2 37948  48.4068 276.4600 0103823 219.2205 139.0368  1.00256455 49131
BEIDOU-2 G5 (C05)       
1 38091U 12008A   25134.90044809  .00000073  00000+0  00000+0 0  9999
2 38091   2.5815  71.2584 0010098 268.5481 275.8946  1.00272368 48375
BEIDOU-2 M3 (C11)       
1 38250U 12018A   25134.76796669 -.00000060  00000+0  00000+0 0  9996
2 38250  56.0939 318.2690 0020445 270.2289  89.5337  1.86233762 88870
BEIDOU-2 M4 (C12)       
1 38251U 12018B   25135.23676628 -.00000056  00000+0  00000+0 0  9997
2 38251  55.9972 317.4994 0011370 273.8446  86.0214  1.86232179 88883
BEIDOU-2 M6 (C14)       
1 38775U 12050B   25134.94689191 -.00000022  00000+0  00000+0 0  9993
2 38775  56.1936  76.0990 0014470 343.6067  16.3172  1.86231093 86241
BEIDOU-2 G6 (C02)       
1 38953U 12059A   25134.89578910 -.00000160  00000+0  00000+0 0  9993
2 38953   3.4089  77.6315 0010446 315.7018 246.0849  1.00271347 45910
BEIDOU-3S IGSO-1S (C31) 
1 40549U 15019A   25131.86538543 -.00000180  00000+0  00000+0 0  9990
2 40549  49.9571 300.2819 0038502 191.1793 144.1093  1.00286564 37049
BEIDOU-3S M2S (C58)     
1 40748U 15037A   25134.90265377 -.00000059  00000+0  00000+0 0  9996
2 40748  55.2198 315.7224 0007943 258.9288 100.9753  1.86229359 66703
BEIDOU-3S M1S (C57)     
1 40749U 15037B   25133.01329904 -.00000070  00000+0  00000+0 0  9998
2 40749  55.2179 315.7791 0003863  25.1692 334.8447  1.86253949 66678
BEIDOU-3S IGSO-2S (C56) 
1 40938U 15053A   25134.82656587 -.00000143  00000+0  00000+0 0  9997
2 40938  49.8410 263.5108 0058380 187.6055 175.4523  1.00275343 35351
BEIDOU-2 IGSO-6 (C13)   
1 41434U 16021A   25134.74071152 -.00000157  00000+0  00000+0 0  9990
2 41434  59.6640  42.0167 0054340 230.0389 320.3563  1.00293460 33484
BEIDOU-2 G7 (C03)       
1 41586U 16037A   25134.90101828 -.00000338  00000+0  00000+0 0  9998
2 41586   1.6837  68.5020 0010047 340.6333 258.6664  1.00273612  2894
BEIDOU-3 M1 (C19)       
1 43001U 17069A   25134.17562091 -.00000028  00000+0  00000+0 0  9996
2 43001  56.3419  76.2643 0011769 313.2963  46.5730  1.86231499 51179
BEIDOU-3 M2 (C20)       
1 43002U 17069B   25134.11352188 -.00000029  00000+0  00000+0 0  9996
2 43002  56.3413  76.3019 0009877 335.2250  24.6945  1.86230963 51161
BEIDOU-3 M7 (C27)       
1 43107U 18003A   25134.93338323 -.00000060  00000+0  00000+0 0  9991
2 43107  54.6782 316.1662 0004960  78.4897 281.5602  1.86232621 49947
BEIDOU-3 M8 (C28)       
1 43108U 18003B   25134.33958703 -.00000064  00000+0  00000+0 0  9990
2 43108  54.6716 316.1706 0002389 269.0780  90.8888  1.86231093 49934
BEIDOU-3 M4 (C22)       
1 43207U 18018A   25134.24380249 -.00000028  00000+0  00000+0 0  9990
2 43207  56.3008  76.3396 0007517 357.7443   2.2197  1.86231401 49311
BEIDOU-3 M3 (C21)       
1 43208U 18018B   25133.23641865 -.00000036  00000+0  00000+0 0  9992
2 43208  56.2996  76.3771 0009690 325.0468  34.8536  1.86231367 49299
BEIDOU-3 M9 (C29)       
1 43245U 18029A   25135.06545045 -.00000057  00000+0  00000+0 0  9994
2 43245  54.5520 313.8368 0000526  91.8658 268.1312  1.86232899 48488
BEIDOU-3 M10 (C30)      
1 43246U 18029B   25134.99750459 -.00000058  00000+0  00000+0 0  9994
2 43246  54.5491 313.8662 0004333  28.4973 331.5173  1.86229206 48476
BEIDOU-2 IGSO-7 (C16)   
1 43539U 18057A   25133.27493119 -.00000044  00000+0  00000+0 0  9992
2 43539  55.1600 166.5224 0088856 236.3167  40.5747  1.00267833 25118
BEIDOU-3 M5 (C23)       
1 43581U 18062A   25135.22288632  .00000056  00000+0  00000+0 0  9996
2 43581  54.1000 195.8350 0004628 279.6277  80.4123  1.86228801 46222
BEIDOU-3 M6 (C24)       
1 43582U 18062B   25132.93929057  .00000062  00000+0  00000+0 0  9992
2 43582  54.0997 195.9019 0004397  14.0791 346.0252  1.86229644 46180
BEIDOU-3 M12 (C26)      
1 43602U 18067A   25133.41174191  .00000063  00000+0  00000+0 0  9996
2 43602  54.1929 194.5972 0007211  27.0377 333.0936  1.86227960 45671
BEIDOU-3 M11 (C25)      
1 43603U 18067B   25133.00873314  .00000063  00000+0  00000+0 0  9995
2 43603  54.1901 194.5754 0003969  12.2493 347.8534  1.86227435 45697
BEIDOU-3 M13 (C32)      
1 43622U 18072A   25134.57840460 -.00000026  00000+0  00000+0 0  9991
2 43622  56.2736  75.8501 0008311 314.8223  45.0796  1.86231417 45238
BEIDOU-3 M14 (C33)      
1 43623U 18072B   25133.36996993 -.00000036  00000+0  00000+0 0  9992
2 43623  56.2746  75.8836 0006562 338.8570  21.0807  1.86231472 45203
BEIDOU-3 M16 (C35)      
1 43647U 18078A   25134.60408346 -.00000061  00000+0  00000+0 0  9990
2 43647  54.4485 313.9235 0007657  31.0145 329.0216  1.86232420 44730
BEIDOU-3 M15 (C34)      
1 43648U 18078B   25135.27027955 -.00000056  00000+0  00000+0 0  9992
2 43648  54.4437 313.9021 0004738  44.6983 315.3311  1.86232401 44775
BEIDOU-3 G1 (C59)       
1 43683U 18085A   25134.90683927 -.00000264  00000+0  00000+0 0  9996
2 43683   3.0237  98.9095 0004962  11.0033 229.3254  1.00265534 24065
BEIDOU-3 M17 (C36)      
1 43706U 18093A   25134.88841687  .00000058  00000+0  00000+0 0  9997
2 43706  54.1834 195.8092 0009389 284.7113  75.2776  1.86228520 44103
BEIDOU-3 M18 (C37)      
1 43707U 18093B   25135.28804453  .00000056  00000+0  00000+0 0  9991
2 43707  54.1841 195.7876 0007313 313.4947  46.5368  1.86229973 44124
BEIDOU-3 IGSO-1 (C38)   
1 44204U 19023A   25135.51249583 -.00000220  00000+0  00000+0 0  9995
2 44204  58.1303  41.7598 0020662 224.7679 268.4353  1.00255810 22370
BEIDOU-2 G8 (C01)       
1 44231U 19027A   25134.83636293 -.00000230  00000+0  00000+0 0  9992
2 44231   1.6075  74.9710 0004835 260.6014 342.8829  1.00275597 22086
BEIDOU-3 IGSO-2 (C39)   
1 44337U 19035A   25134.84850764 -.00000056  00000+0  00000+0 0  9996
2 44337  55.2044 162.3597 0035828 209.9128 285.6991  1.00281731 21672
BEIDOU-3 M24 (C46)      
1 44542U 19061A   25135.35888035  .00000056  00000+0  00000+0 0  9991
2 44542  54.4110 196.1453 0007626 354.8128   5.2714  1.86229113 38381
BEIDOU-3 M23 (C45)      
1 44543U 19061B   25134.94749927  .00000058  00000+0  00000+0 0  9994
2 44543  54.4096 196.1279 0004904 335.1861  21.8130  1.86229387 38371
BEIDOU-3 IGSO-3 (C40)   
1 44709U 19073A   25133.82018335 -.00000201  00000+0  00000+0 0  9990
2 44709  55.4866 285.2018 0044278 182.2401 177.6476  1.00255646 20457
BEIDOU-3 M22 (C44)      
1 44793U 19078A   25134.66443746 -.00000061  00000+0  00000+0 0  9993
2 44793  54.2956 313.8128 0006690  39.0851 320.9540  1.86232262 37233
BEIDOU-3 M21 (C43)      
1 44794U 19078B   25134.79714970 -.00000060  00000+0  00000+0 0  9997
2 44794  54.2687 313.7774 0004671  37.1980 322.8251  1.86227889 37239
BEIDOU-3 M19 (C41)      
1 44864U 19090A   25135.25985484 -.00000020  00000+0  00000+0 0  9997
2 44864  56.2081  75.9807 0019102 290.8168 213.0543  1.86231761 36825
BEIDOU-3 M20 (C42)      
1 44865U 19090B   25133.44583287 -.00000035  00000+0  00000+0 0  9998
2 44865  56.2086  76.0747 0017015 303.3870 153.9338  1.86231708 36776
BEIDOU-3 G2 (C60)       
1 45344U 20017A   25134.89500718 -.00000127  00000+0  00000+0 0  9992
2 45344   2.8163  39.7359 0002619   2.7930 232.5963  1.00272470 19268
BEIDOU-3 G3 (C61)       
1 45807U 20040A   25134.90101828 -.00000338  00000+0  00000+0 0  9997
2 45807   1.4840  63.2485 0002449 317.2467 287.2308  1.00277638 18070
BEIDOU-3 G4 (C62)       
1 56564U 23066A   25134.83949062 -.00000095  00000+0  00000+0 0  9992
2 56564   1.3046 291.7795 0006019 176.7434 226.5404  1.00272954  7404
BEIDOU-3 M28 (C50)      
1 58654U 23207A   25133.26621736 -.00000038  00000+0  00000+0 0  9999
2 58654  55.3950  75.8333 0004222 316.7622  43.1693  1.86230027  9399
BEIDOU-3 M26 (C48)      
1 58655U 23207B   25135.21356699 -.00000022  00000+0  00000+0 0  9993
2 58655  55.3985  75.7533 0004468 297.0189  62.9078  1.86231691  9417
BEIDOU-3 M25 (C47)      
1 61186U 24168B   25135.37112212 -.00000057  00000+0  00000+0 0  9999
2 61186  54.8234 316.0315 0003363 304.0100 279.4648  1.86230308  4366
BEIDOU-3 M27 (C49)      
1 61187U 24168C   25135.36949534 -.00000057  00000+0  00000+0 0  9994
2 61187  54.8187 316.0161 0002187  31.7620 325.5016  1.86230406  4403
